ADRAS-J                 
1 58992U 24034A   24175.54066776  .00004275  00000+0  39856-3 0  9997
2 58992  98.2121 148.8473 0044636  30.1798 330.1978 14.94065444 18814
